First least square run :: 
42396.6803711  0.0147010404782  3.05208545727e-09  0.66  64.1707249162  
Convergence moindre carre incomplete -> relance
Second least square run :: 
42585.96677  0.0547362994741  3.13909897339e-09  0.66  49.1875472436  
 
 Sommes des résidus par camera : 
              camera               sigma                   s                   n                 Sum        Sum expected                  s'
              ENGL01      0.435328072225      0.767385608831                  26       2.95094904779       1.30565409993      0.990391200943
              FRNO01      0.709961857765      0.648425947003                  16      0.788087915292       2.04554372729                   0
              ENSE02      0.707444780036     0.0954079984235                  26       45.4485102805       17.9734621123      0.882591804483
 Sum Expected Total :: 21.3246599395
 
 Sommes des résidus par camera 2 : 
              camera               sigma                   s                   n                 Sum        Sum expected                  s'
              ENGL01      0.435328072225        1.2528988002                  26      0.748182003549       1.11554632128                   0
              FRNO01      0.709961857765      0.648425947003                  16      0.846504832547       2.04554372729                   0
              ENSE02      0.707444780036      0.887733619676                  26         1.695154172       1.59608194557      0.282812665025
 Sum Expected Total :: 4.75717199414
 
Parametre  de la meilleure solution par moindre carré :: 
 V  = 42540.1399162 m/s
 A  = 0.0534345556633 m²/kg
 B  = 3.09888952995e-09 m²/J
 mu = 0.66
 
S_min : 3.2898410081
 
 
 Estimation Parametre par Moyenne pondérée (si cette estimation est très différente de la précédente, cela peut être le signe d'un problème) :: 
 V  = 42602.1231041 m/s
 A  = 0.0779392085491 m²/kg
 B  = 1.47452622249e-09 m²/J
 
 Parametre Maria :: 
 gamma = 21.2417136457°
 Alpha = 681.118563803
 Beta  = 17.8414703128
 
Final Mass : 1.62343529134e-21 %
 
         rho(Kg/m³)               Re(m)              Me(Kg)               Rf(m)              Mf(Kg)
                1500    0.00935724071798    0.00514781906909   2.36933314318e-10   8.35715115021e-26
                2500    0.00561434443079    0.00185321486487   1.42159988591e-10   3.00857441407e-26
                3500    0.00401024602199     0.0009455177882   1.01542848993e-10   1.53498694596e-26
                4500    0.00311908023933   0.000571979896565   7.89777714392e-11   9.28572350023e-27
                5500    0.00255197474127   0.000382895633238   6.46181766321e-11     6.216062839e-27
                6500    0.00215936324261    0.00027414421078   5.46769186887e-11   4.45055386697e-27
 
Matrix of Covariance : 
    |                   Ve |                    A |                    B | 
Ve  |        27857.7608022 |        5.23376844404 |   -1.23798012366e-07 | 
A   |        5.23376844404 |      0.0014097706081 |   -4.93305481512e-11 | 
B   |   -1.23798012366e-07 |   -4.93305481512e-11 |    3.49481252974e-18 | 
 
 
 Time shift :: 
ENGL01 : 0.00600813655815 s
FRNO01 : -0.0101868117252 s
ENSE02 : 0.00417867516703 s
 
 
 Transposed Jacobian Matrix :: 
       |             Ve(m/s) |                    A |                    B | 
dx1(m) |      0.073570448937 |    7.73260400465e-06 |   -2.11771719824e-13 | 
dx2(m) |     -0.350342914872 |   -3.20950590846e-05 |    1.58020225465e-13 | 
dx3(m) |     0.0255323443394 |   -3.73303746982e-06 |    -1.6525260473e-13 | 
dx4(m) |      0.127139873656 |    3.94390503878e-05 |   -7.76215905963e-13 | 
 
 Propagation des Variances :: 
        |              Ve(m/s) |                    A |                    B | 
Ve(m/s) |        2076.38729024 |       0.299980768897 |    -3.5532850852e-09 | 
A       |       0.299980768897 |    4.59774097247e-05 |   -5.59432128842e-13 | 
B       |    -3.5532850852e-09 |   -5.59432128842e-13 |     6.9226450722e-21 | 
 
 Variances Totales :: 
        |              Ve(m/s) |                    A |                    B | 
Ve(m/s) |        29934.1480924 |        5.53374921294 |   -1.27351297451e-07 | 
A       |        5.53374921294 |     0.00145574801782 |     -4.988998028e-11 | 
B       |   -1.27351297451e-07 |     -4.988998028e-11 |    3.50173517481e-18 | 
 
sigma Ve : 173.01487824 m/s
sigma A  : 0.0381542660501 m^2/Kg
sigma B  : 1.8712923809e-09 m^2/J
 
sigma Me (relatif) : 214.211191109 %
sigma Mf (relatif) : 4912.02057592 %
 
A/B : 17.2431302074 MJ/Kg
sigma A/B : 16.1248160333 MJ/Kg
 
    Remarque : A/B decrit la solidité du bolide. Il doit être entre 50 et 8000 MJ/Kg 
 
 
 
 
------------------------------------------------------------------------ 
------------------------------------------------------------------------ 
------------------------------------------------------------------------ 
 
 
  ORBITE :: 
Perifocal Distance              :: 0.981072442892 AU
Eccentricity                    :: 0.657266540659
Inclination                     :: 72.2576991295 °
Longitude of the ascending node :: 282.501228442 °
Argument of periapsis           :: 173.933337007 °
Mean anomaly at epoch           :: 0.518419347452 °
Epoch                           :: 2020-01-01T14:29:45.294
Semi-major axe                  :: 2.8624939181 AU
 
Moon near encounter             :: 398899.355875km   ( 229.595577227 moon radius )
Tisserand_J                     :: 2.15831243529
Tisserand_S                     :: 3.67231041188
Tisserand_U                     :: 7.04430010904
Tisserand_N                     :: 10.8455308929
 
 
  Transposed Jacobian Matrix  :: 
        |        Per dist(AU) |                  ecc |                  Inc |                 Long |                  Arg |              Mean an |                Epoch |                    a | 
dx1(km) |    -0.0017981943749 |    -0.00801119518544 |       0.152659951749 |    9.58212639949e-06 |       -2.15884266066 |       0.370849992081 |        28.9470026493 |     -0.0705076800196 |  
dx2(km) |   0.000326537992281 |     -0.0335841664734 |       0.602450739268 |    1.49663539891e-05 |        0.38199368393 |      0.0198809057047 |       -27.0734801292 |      -0.254593268319 |  
dx3(km) |    0.00125811688672 |     0.00931630086643 |      -0.165196272931 |    5.51956853709e-06 |        2.13421944198 |      -0.342062887276 |       -27.2467937469 |      0.0837568515784 |  
dx4(km) |  -0.000323343775162 |      0.0346734470669 |      -0.604511354008 |    7.86310468348e-07 |       -0.33487818285 |     -0.0408910561797 |       -10.9312951565 |       0.321136089176 |  
V(km/s) |   -0.00045402366338 |       0.023658269566 |        1.28893452808 |   -0.000757867582053 |      -0.565428876967 |       0.030542672068 |        1056.98509216 |       0.196132667106 |  
 
 Variances :: 
             |        Per dist(AU) |                  ecc |                  Inc |                 Long |                  Arg |              Mean an |             Epoch(s) |                    a | 
Per dist(AU) |     6.988420381e-08 |   -1.42908013669e-06 |    1.88940068295e-06 |    1.05245136389e-08 |    9.23150393896e-05 |   -1.08571924543e-05 |     -0.0156626230242 |   -1.18009886146e-05 |  
ecc          |  -1.42908013669e-06 |    3.98900945289e-05 |     0.00050688964225 |   -5.41244151694e-07 |    -0.00186289757222 |     0.00019172177616 |       0.770790099068 |    0.000331383074778 |  
Inc          |   1.88940068295e-06 |     0.00050688964225 |      0.0568533665759 |   -2.91614113496e-05 |     0.00380392335789 |    -0.00180000795052 |        40.3917563505 |     0.00419061844953 |  
Long         |   1.05245136389e-08 |   -5.41244151694e-07 |   -2.91614113496e-05 |    1.71940067612e-08 |     1.3123262364e-05 |   -7.27781246943e-07 |     -0.0239835457538 |   -4.48690505152e-06 |  
Arg          |   9.23150393896e-05 |    -0.00186289757222 |     0.00380392335789 |     1.3123262364e-05 |       0.122360063378 |     -0.0144473047599 |       -19.5973176125 |     -0.0154089704854 |  
Mean an      |  -1.08571924543e-05 |     0.00019172177616 |    -0.00180000795052 |   -7.27781246943e-07 |     -0.0144473047599 |      0.0017762998806 |        1.17834343777 |     0.00158023378544 |  
Epoch(s)     |    -0.0156626230242 |       0.770790099068 |        40.3917563505 |     -0.0239835457538 |       -19.5973176125 |        1.17834343777 |        33470.4092328 |        6.38720832071 |  
a            |  -1.18009886146e-05 |    0.000331383074778 |     0.00419061844953 |   -4.48690505152e-06 |     -0.0154089704854 |     0.00158023378544 |        6.38720832071 |     0.00275659641687 |  
 
     Ecarts types :: 
Per dist(AU) :   0.000264356206301 
ecc          :    0.00631586055331 
Inc          :      0.238439440059 
Long         :   0.000131125919486 
Arg          :      0.349800033417 
Mean an      :     0.0421461727871 
Epoch(s)     :       182.949198503 
a            :     0.0525032991046 
